STARLINK-11105 [DTC]    
1 59758C 24091F   26088.63381944  .00039663  00000+0  32680-3 0   889
2 59758  53.1555 108.0141 0001120  77.4661 336.6965 15.69683396    15
STARLINK-11097 [DTC]    
1 59759C 24091G   26088.69562500 -.00061423  00000+0 -50599-3 0   885
2 59759  53.1558 107.6336 0001204  87.9063 343.4551 15.69738642    17
STARLINK-11098 [DTC]    
1 59760C 24091H   26088.72895833 -.00101580  00000+0 -83581-3 0   885
2 59760  53.1562 107.4124 0001131  79.7013 207.8243 15.69787037    13
STARLINK-11117 [DTC]    
1 59761C 24091J   26088.66645833 -.00004076  00000+0 -33557-4 0   883
2 59761  53.1562 107.6639 0001022  81.1244 240.8025 15.69724548    12
STARLINK-11110 [DTC]    
1 59762C 24091K   26088.69284722 -.00000079  00000+0 -64853-6 0   887
2 59762  53.1564 107.4765 0001293  85.2083  53.6609 15.69715142    17
STARLINK-11104 [DTC]    
1 59763C 24091L   26088.69840278  .00002889  00000+0  23801-4 0   887
2 59763  53.1562 107.3920 0001211 107.8902  90.1099 15.69700324    14
STARLINK-11111 [DTC]    
1 59764C 24091M   26088.70951389 -.00070146  00000+0 -57791-3 0   883
2 59764  53.1564 107.2235 0001170  72.5403 243.7715 15.69740431    17
STARLINK-11106 [DTC]    
1 59765C 24091N   26088.67201389 -.00021028  00000+0 -17318-3 0   884
2 59765  53.1564 107.4651 0001525  79.9685 356.5792 15.69723239    14
STARLINK-31739          
1 59766C 24091P   26088.71298611 -.00044499  00000+0 -14992-2 0   885
2 59766  53.1579 290.9522 0001270  95.6456 184.9271 15.30226678    12
STARLINK-31828          
1 59767C 24091Q   26088.71020833 -.00016173  00000+0 -54516-3 0   880
2 59767  53.1588 293.9618 0001266  90.5453  89.7716 15.30195614    19
STARLINK-31826          
1 59768C 24091R   26088.70256944  .00105280  00000+0  33658-2 0   883
2 59768  53.1587 293.9794 0000374 308.3342 201.8594 15.31837103    18
STARLINK-31830          
1 59769C 24091S   26088.66854167 -.00006007  00000+0 -20236-3 0   888
2 59769  53.1593 294.2256 0001258  98.3845 177.3724 15.30210811    11
STARLINK-31829          
1 59770C 24091T   26088.73659722 -.00296170  00000+0 -99636-2 0   889
2 59770  53.1586 293.8098 0001401  88.3079 254.8897 15.30398731    12
STARLINK-31786          
1 59771C 24091U   26088.71923611 -.00040961  00000+0 -13801-2 0   884
2 59771  53.1592 294.0358 0001270  93.1454  78.7612 15.30222072    19
STARLINK-31835          
1 59772C 24091V   26088.73104167 -.00047080  00000+0 -15866-2 0   886
2 59772  53.1584 293.7949 0001225  94.6897 235.3571 15.30217890    17
STARLINK-31363          
1 59782C 24093A   26088.71576389 -.00021048  00000+0 -76243-3 0   889
2 59782  43.0006  92.5943 0001228 258.4787 138.8529 15.27585515    13
STARLINK-31868          
1 59783C 24093B   26088.71576389 -.00019824  00000+0 -71817-3 0   881
2 59783  43.0009  92.5756 0001108 265.6569 124.6406 15.27582258    12
STARLINK-31848          
1 59784C 24093C   26088.70187500 -.00018863  00000+0 -68331-3 0   883
2 59784  43.0015  92.3941 0001464 264.5268 190.7108 15.27582595    10
STARLINK-31890          
1 59785C 24093D   26088.72340278 -.00024059  00000+0 -87165-3 0   889
2 59785  43.0007  92.3235 0001413 263.1472 289.3959 15.27582091    14
STARLINK-31862          
1 59786C 24093E   26088.70256944 -.00024853  00000+0 -90030-3 0   881
2 59786  43.0023  95.5434 0001085 275.1912 313.8857 15.27586768    11
STARLINK-31870          
1 59787C 24093F   26088.67201389 -.00015089  00000+0 -54658-3 0   888
2 59787  43.0011  95.6655 0001003 275.5376 166.5307 15.27582502    18
STARLINK-31888          
1 59788C 24093G   26088.64631944 -.00011522  00000+0 -41740-3 0   886
2 59788  43.0030  95.9457 0001319 278.0515 325.9582 15.27579353    12
STARLINK-31863          
1 59789C 24093H   26088.73937500 -.00017522  00000+0 -63478-3 0   882
2 59789  43.0029  95.3865 0001291 263.7845 146.7111 15.27579900    19
STARLINK-31873          
1 59790C 24093J   26088.65048611 -.00012440  00000+0 -45117-3 0   885
2 59790  43.0035  96.0214 0001561 284.5588 299.9044 15.27540040    18
STARLINK-31865          
1 59791C 24093K   26088.69631944 -.00019925  00000+0 -72168-3 0   888
2 59791  43.0031  95.8117 0001165 273.3815 182.2173 15.27588500    13
STARLINK-31823          
1 59794C 24093N   26088.72062500 -.00023481  00000+0 -85052-3 0   889
2 59794  43.0026  95.7231 0001637 273.2077 294.9992 15.27587704    14
STARLINK-31916          
1 59795C 24093P   26088.68937500 -.00019625  00000+0 -71088-3 0   885
2 59795  43.0018  95.9494 0001584 266.3704 108.5621 15.27585273    18
STARLINK-31907          
1 59797C 24093R   26088.67756944 -.00022155  00000+0 -80259-3 0   889
2 59797  43.0016  96.0493 0001316 267.1594  28.6349 15.27583385    19
STARLINK-31687          
1 59798C 24093S   26088.65395833 -.00010507  00000+0 -38059-3 0   883
2 59798  43.0007  96.5235 0001417 265.2505 119.0558 15.27579970    14
STARLINK-31810          
1 59799C 24093T   26088.64909722 -.00005360  00000+0 -19416-3 0   888
2 59799  43.0001  96.3614 0001430 266.8223 168.5339 15.27578462    18
STARLINK-31812          
1 59800C 24093U   26088.72687500 -.00022061  00000+0 -79910-3 0   889
2 59800  43.0016  95.8206 0001040 276.7819 269.2384 15.27587682    19
STARLINK-31815          
1 59801C 24093V   26088.70743056 -.00018001  00000+0 -65206-3 0   889
2 59801  43.0011  95.9811 0001225 277.2503 140.4918 15.27585088    10
STARLINK-31814          
1 59802C 24093W   26088.64284722 -.00089217  00000+0 -32240-2 0   881
2 59802  43.0002  96.6223 0001114 267.7884  34.0160 15.27698548    12
STARLINK-31794          
1 59803C 24093X   26088.68173611 -.00022346  00000+0 -80942-3 0   883
2 59803  43.0002  96.2776 0001217 278.7643 293.8417 15.27587197    18
STARLINK-31824          
1 59804C 24093Y   26088.69284722 -.00025605  00000+0 -92752-3 0   884
2 59804  43.0004  96.1657 0001204 270.4600  24.5516 15.27587104    13
STARLINK-31947          
1 59835C 24097A   26088.68798611  .00080206  00000+0  29076-2 0   882
2 59835  43.0035 161.2082 0001575 281.6651 229.6044 15.27509837    19
STARLINK-31929          
1 59836C 24097B   26088.63104167  .00039544  00000+0  14332-2 0   883
2 59836  43.0014 162.0490 0001367 284.9980  53.4024 15.27539074    16
STARLINK-31927          
1 59837C 24097C   26088.68729167  .00051616  00000+0  18710-2 0   880
2 59837  43.0006 161.4422 0001336 278.8202 129.5509 15.27527196    16
STARLINK-31855          
1 59838C 24097D   26088.61993056  .00014108  00000+0  51149-3 0   883
2 59838  43.0039 161.5286 0001368 280.6565 237.1486 15.27539726    12
STARLINK-31887          
1 59839C 24097E   26088.63868056  .00036918  00000+0  13381-2 0   885
2 59839  43.0016 162.0503 0001354 285.4840  73.7583 15.27538008    14
STARLINK-31852          
1 59841C 24097G   26088.72409722  .00044396  00000+0  16092-2 0   880
2 59841  43.0013 153.4881 0001594 268.5947 323.7710 15.27532576    17
STARLINK-31906          
1 59842C 24097H   26088.62062500 -.00031644  00000+0 -11473-2 0   881
2 59842  43.0003 161.9191 0001398 278.4138  80.5048 15.27561770    19
STARLINK-31857          
1 59843C 24097J   26088.73034722  .00065010  00000+0  23565-2 0   886
2 59843  43.0036 160.8218 0001495 283.6927 157.3955 15.27520672    12
STARLINK-31851          
1 59844C 24097K   26088.62131944 -.00001249  00000+0 -45267-4 0   880
2 59844  43.0026 161.6317 0001328 274.8237 208.1652 15.27557560    17
STARLINK-31903          
1 59845C 24097L   26088.72687500  .00044094  00000+0  15983-2 0   889
2 59845  42.9999 154.2002 0001468 271.3853  32.0550 15.27530464    10
STARLINK-31922          
1 59846C 24097M   26088.74076389  .00053888  00000+0  19517-2 0   887
2 59846  43.0038 160.8131 0001396 268.8074 208.4304 15.27553904    19
STARLINK-31889          
1 59847C 24097N   26088.68243056  .00043133  00000+0  15636-2 0   888
2 59847  43.0023 161.8752 0001229 278.4333 293.4217 15.27530753    18
STARLINK-31859          
1 59848C 24097P   26088.69840278  .00068236  00000+0  24735-2 0   880
2 59848  43.0011 154.4477 0001611 267.6093 203.7187 15.27518012    10
STARLINK-31895          
1 59849C 24097Q   26088.62062500 -.00011747  00000+0 -42585-3 0   889
2 59849  43.0018 161.6843 0001396 272.2791 185.6646 15.27556146    10
STARLINK-31899          
1 59850C 24097R   26088.69840278  .00082801  00000+0  30016-2 0   886
2 59850  43.0011 161.2937 0001788 276.4346 228.5141 15.27508833    19
STARLINK-31896          
1 59851C 24097S   26088.62826389  .00003628  00000+0  13143-3 0   880
2 59851  43.0006 161.7408 0001472 276.2343 181.3005 15.27570912    19
STARLINK-31892          
1 59853C 24097U   26088.67270833  .00060555  00000+0  21950-2 0   880
2 59853  43.0006 161.7250 0001447 272.7577 330.4501 15.27523143    10
STARLINK-31891          
1 59854C 24097V   26088.68590278  .00056371  00000+0  20436-2 0   889
2 59854  43.0018 161.7030 0001544 269.4506  25.1886 15.27520414    15
STARLINK-31882          
1 59855C 24097W   26088.74145833  .00038683  00000+0  14020-2 0   888
2 59855  43.0004 154.1428 0001534 277.8886  91.7091 15.27537124    14
STARLINK-31691          
1 59856C 24097X   26088.74354167  .00050301  00000+0  18240-2 0   880
2 59856  43.0029 160.6952 0001675 277.9687 257.0404 15.27514639    13
STARLINK-31569          
1 59857C 24097Y   26088.71020833  .00044505  00000+0  16135-2 0   888
2 59857  43.0005 161.3591 0001160 274.4417 238.9117 15.27524804    11
STARLINK-31654          
1 59858C 24098A   26088.62687500 -.00012054  00000+0 -43674-3 0   885
2 59858  43.0039 157.9767 0001468 277.8194 353.2105 15.27573845    12
STARLINK-31442          
1 59859C 24098B   26088.73243056  .00079162  00000+0  28682-2 0   884
2 59859  43.0008 168.7035 0001498 281.7897 168.0899 15.27528267    14
STARLINK-31651          
1 59860C 24098C   26088.62756944  .00022404  00000+0  81235-3 0   880
2 59860  43.0012 165.3889 0001446 265.4226 162.5715 15.27531548    11
